FENGYUN 1C DEB          
1 30250U 99025XK  17345.77063168 -.00000061  00000-0 -12182-4 0  9990
2 30250  98.9898  39.1641 0065773  54.7704  70.5758 13.98872403556162
